{
  "norad_id": 66598,
  "name": "STARLINK-35981",
  "history": [
    {
      "epoch": "2026-03-28T00:32:04.493472",
      "apogee_km": 484.3558842797802,
      "perigee_km": 481.6261158936659,
      "latitude_deg": 1.1055721279571815,
      "longitude_deg": 121.93832608009689,
      "semi_major_axis_km": 6861.128000086723,
      "eccentricity": 0.00019893,
      "inclination_deg": 43.0058,
      "raan_deg": 312.299,
      "arg_perigee_deg": 276.4436,
      "mean_anomaly_deg": 83.6189,
      "mean_motion_rev_day": 15.27599402
    },
    {
      "epoch": "2026-03-29T00:04:25.074336",
      "apogee_km": 483.7105885128749,
      "perigee_km": 482.2244732714844,
      "latitude_deg": -0.4492710600101985,
      "longitude_deg": -143.90547295985743,
      "semi_major_axis_km": 6861.104530892179,
      "eccentricity": 0.0001083,
      "inclination_deg": 43.0046,
      "raan_deg": 306.76,
      "arg_perigee_deg": 280.9966,
      "mean_anomaly_deg": 79.0764,
      "mean_motion_rev_day": 15.2760724
    }
  ]
}